NORAD_CAT_ID,OBJECT_NAME,OBJECT_TYPE,EPOCH,MEAN_MOTION,ECCENTRICITY,INCLINATION,RA_OF_ASC_NODE,ARG_OF_PERICENTER,MEAN_ANOMALY,BSTAR,MEAN_MOTION_DOT,MEAN_MOTION_DDOT,TLE_LINE0,TLE_LINE1,TLE_LINE2,SEMIMAJOR_AXIS,PERIOD,APOGEE,PERIGEE,DECAYED
55399.0,STARLINK-5276,PAYLOAD,2023-06-03 23:20:42,15.69920449,0.0003803,69.9967,103.0592,267.1607,92.9153,7.923e-06,7.4e-06,0.0,0 STARLINK-5276,1 55399U 23014J   23154.97271364  .00000740  00000-0  79230-5 0  9992,2 55399  69.9967 103.0592 0003803 267.1607  92.9153 15.69920449 19550,6737.262,91.724,361.689,356.564,0.0
55399.0,STARLINK-5276,PAYLOAD,2023-06-04 06:59:27,15.69923911,0.0003217,69.9985,102.1643,255.0563,105.0277,1.5254e-05,1.622e-05,0.0,0 STARLINK-5276,1 55399U 23014J   23155.29129408  .00001622  00000-0  15254-4 0  9994,2 55399  69.9985 102.1643 0003217 255.0563 105.0277 15.69923911 20544,6737.252,91.724,361.284,356.949,0.0
55399.0,STARLINK-5276,PAYLOAD,2023-06-04 22:16:58,15.69927465,0.0003289,69.9987,100.3727,251.3186,108.7653,2.1413e-05,2.363e-05,0.0,0 STARLINK-5276,1 55399U 23014J   23155.92845142  .00002363  00000-0  21413-4 0  9991,2 55399  69.9987 100.3727 0003289 251.3186 108.7653 15.69927465 20645,6737.242,91.724,361.322,356.891,0.0
55399.0,STARLINK-5276,PAYLOAD,2023-06-05 04:23:58,15.6992578,0.0003546,69.9978,99.6558,260.4662,99.6133,1.5301e-05,1.627e-05,0.0,0 STARLINK-5276,1 55399U 23014J   23156.18332077  .00001627  00000-0  15301-4 0  9999,2 55399  69.9978  99.6558 0003546 260.4662  99.6133 15.69925780 19741,6737.246,91.724,361.5,356.722,0.0
55399.0,STARLINK-5276,PAYLOAD,2023-06-05 05:55:45,15.6990746,0.0003265,69.9977,99.4778,261.1986,98.884,-1.3283e-05,-1.808e-05,0.0,0 STARLINK-5276,1 55399U 23014J   23156.24705524 -.00001808  00000-0 -13283-4 0  9997,2 55399  69.9977  99.4778 0003265 261.1986  98.8840 15.69907460 19759,6737.299,91.725,361.363,356.964,0.0
55399.0,STARLINK-5276,PAYLOAD,2023-06-05 22:45:01,15.69920651,0.0003746,69.9972,97.5046,264.9604,95.1164,2.1652e-06,4.7e-07,0.0,0 STARLINK-5276,1 55399U 23014J   23156.94792865  .00000047  00000-0  21652-5 0  9990,2 55399  69.9972  97.5046 0003746 264.9604  95.1164 15.69920651 19861,6737.261,91.724,361.65,356.602,0.0
55399.0,STARLINK-5276,PAYLOAD,2023-06-06 04:52:01,15.69923592,0.0003445,69.9978,96.7888,258.1082,101.9727,9.7906e-06,9.65e-06,0.0,0 STARLINK-5276,1 55399U 23014J   23157.20279210  .00000965  00000-0  97906-5 0  9998,2 55399  69.9978  96.7888 0003445 258.1082 101.9727 15.69923592 20841,6737.253,91.724,361.439,356.797,0.0
55399.0,STARLINK-5276,PAYLOAD,2023-06-07 05:20:03,15.69923193,0.0003425,69.9984,93.9244,255.459,104.6226,2.3385e-06,6.8e-07,0.0,0 STARLINK-5276,1 55399U 23014J   23158.22226102  .00000068  00000-0  23385-5 0  9997,2 55399  69.9984  93.9244 0003425 255.4590 104.6226 15.69923193 20060,6737.254,91.724,361.426,356.811,0.0
55399.0,STARLINK-5276,PAYLOAD,2023-06-07 20:37:34,15.69927537,0.0003294,69.9972,92.1298,261.9253,98.1569,1.6246e-06,-1.7e-07,0.0,0 STARLINK-5276,1 55399U 23014J   23158.85942742 -.00000017  00000-0  16246-5 0  9994,2 55399  69.9972  92.1298 0003294 261.9253  98.1569 15.69927537 21108,6737.241,91.724,361.326,356.887,0.0
55399.0,STARLINK-5276,PAYLOAD,2023-06-08 04:16:19,15.69932117,0.0003292,69.9967,91.2336,257.8684,102.2143,4.4654e-06,3.24e-06,0.0,0 STARLINK-5276,1 55399U 23014J   23159.17800655  .00000324  00000-0  44654-5 0  9990,2 55399  69.9967  91.2336 0003292 257.8684 102.2143 15.69932117 20211,6737.228,91.724,361.311,356.875,0.0
55399.0,STARLINK-5276,PAYLOAD,2023-06-08 22:37:21,15.69924776,0.00032,69.9971,89.0849,249.0854,111.0,4.4681e-07,-1.59e-06,0.0,0 STARLINK-5276,1 55399U 23014J   23159.94261269 -.00000159  00000-0  44681-6 0  9995,2 55399  69.9971  89.0849 0003200 249.0854 111.0000 15.69924776 20336,6737.249,91.724,361.27,356.958,0.0
55399.0,STARLINK-5276,PAYLOAD,2023-06-09 04:44:22,15.69913065,0.000346,69.9959,88.3653,266.8484,93.2316,1.859e-05,2.022e-05,0.0,0 STARLINK-5276,1 55399U 23014J   23160.19748373  .00002022  00000-0  18590-4 0  9998,2 55399  69.9959  88.3653 0003460 266.8484  93.2316 15.69913065 20375,6737.283,91.725,361.479,356.817,0.0
55399.0,STARLINK-5276,PAYLOAD,2023-06-10 06:44:09,15.69925511,0.0003083,69.9982,85.3232,269.2929,90.7914,1.0206e-05,1.015e-05,0.0,0 STARLINK-5276,1 55399U 23014J   23161.28066327  .00001015  00000-0  10206-4 0  9998,2 55399  69.9982  85.3232 0003083 269.2929  90.7914 15.69925511 20547,6737.247,91.724,361.189,357.035,0.0
55399.0,STARLINK-5276,PAYLOAD,2023-06-10 20:29:55,15.69921203,0.0003569,69.9973,83.7129,268.0705,92.0082,-7.1787e-07,-2.99e-06,0.0,0 STARLINK-5276,1 55399U 23014J   23161.85411807 -.00000299  00000-0 -71787-6 0  9996,2 55399  69.9973  83.7129 0003569 268.0705  92.0082 15.69921203 21571,6737.259,91.724,361.529,356.72,0.0
55399.0,STARLINK-5276,PAYLOAD,2023-06-11 07:12:10,15.69931798,0.0003613,69.9978,82.4599,262.4636,97.615,5.9684e-06,5.05e-06,0.0,0 STARLINK-5276,1 55399U 23014J   23162.30012659  .00000505  00000-0  59684-5 0  9998,2 55399  69.9978  82.4599 0003613 262.4636  97.6150 15.69931798 20705,6737.229,91.724,361.528,356.66,0.0
55399.0,STARLINK-5276,PAYLOAD,2023-06-11 11:47:27,15.69917677,0.000347,69.9971,81.9217,265.3755,94.7044,7.4734e-06,6.86e-06,0.0,0 STARLINK-5276,1 55399U 23014J   23162.49128554  .00000686  00000-0  74734-5 0  9993,2 55399  69.9971  81.9217 0003470 265.3755  94.7044 15.69917677 21671,6737.27,91.725,361.472,356.797,0.0
55399.0,STARLINK-5276,PAYLOAD,2023-06-11 20:57:57,15.69930068,0.0003413,69.9974,80.8469,261.2843,98.7966,-6.2252e-07,-2.88e-06,0.0,0 STARLINK-5276,1 55399U 23014J   23162.87358056 -.00000288  00000-0 -62252-6 0  9990,2 55399  69.9974  80.8469 0003413 261.2843  98.7966 15.69930068 21734,6737.234,91.724,361.398,356.8,0.0
55399.0,STARLINK-5276,PAYLOAD,2023-06-11 22:29:42,15.69931822,0.000355,69.9971,80.6679,265.9362,94.1427,-6.9222e-06,-1.045e-05,0.0,0 STARLINK-5276,1 55399U 23014J   23162.93729750 -.00001045  00000-0 -69222-5 0  9995,2 55399  69.9971  80.6679 0003550 265.9362  94.1427 15.69931822 20809,6737.229,91.724,361.486,356.702,0.0
55399.0,STARLINK-5276,PAYLOAD,2023-06-12 04:36:44,15.69908404,0.0003181,69.9983,79.9505,273.1069,86.9763,-2.1561e-05,-2.803e-05,0.0,0 STARLINK-5276,1 55399U 23014J   23163.19217996 -.00002803  00000-0 -21561-4 0  9994,2 55399  69.9983  79.9505 0003181 273.1069  86.9763 15.69908404 20842,6737.296,91.725,361.304,357.018,0.0
55399.0,STARLINK-5276,PAYLOAD,2023-06-13 00:29:29,15.69924784,0.000337,69.9973,77.6218,264.6884,95.3927,-1.455e-06,-3.88e-06,0.0,0 STARLINK-5276,1 55399U 23014J   23164.02048489 -.00000388  00000-0 -14550-5 0  9993,2 55399  69.9973  77.6218 0003370 264.6884  95.3927 15.69924784 20976,6737.249,91.724,361.385,356.844,0.0
55399.0,STARLINK-5276,PAYLOAD,2023-06-13 03:33:00,15.69879741,0.0003252,69.9979,77.2639,268.7219,91.3604,8.8652e-05,0.00010441,0.0,0 STARLINK-5276,1 55399U 23014J   23164.14792796  .00010441  00000-0  88652-4 0  9995,2 55399  69.9979  77.2639 0003252 268.7219  91.3604 15.69879741 20993,6737.378,91.727,361.434,357.052,0.0
55399.0,STARLINK-5276,PAYLOAD,2023-06-14 00:57:31,15.69925248,0.000337,69.9982,74.7555,264.5807,95.5005,1.9297e-07,-1.9e-06,0.0,0 STARLINK-5276,1 55399U 23014J   23165.03995249 -.00000190  00000-0  19297-6 0  9994,2 55399  69.9982  74.7555 0003370 264.5807  95.5005 15.69925248 21136,6737.248,91.724,361.383,356.842,0.0
55399.0,STARLINK-5276,PAYLOAD,2023-06-14 17:46:48,15.6992612,0.000354,69.9982,72.7876,261.7421,98.3373,-4.5993e-06,-7.66e-06,0.0,0 STARLINK-5276,1 55399U 23014J   23165.74083909 -.00000766  00000-0 -45993-5 0  9994,2 55399  69.9982  72.7876 0003540 261.7421  98.3373 15.69926120 22185,6737.245,91.724,361.495,356.725,0.0
55399.0,STARLINK-5276,PAYLOAD,2023-06-15 02:57:19,15.6991809,0.0003192,69.9981,71.7107,264.793,95.2902,-1.0903e-05,-1.523e-05,0.0,0 STARLINK-5276,1 55399U 23014J   23166.12314358 -.00001523  00000-0 -10903-4 0  9996,2 55399  69.9981  71.7107 0003192 264.7930  95.2902 15.69918090 21305,6737.268,91.725,361.284,356.983,0.0
55399.0,STARLINK-5276,PAYLOAD,2023-06-16 00:21:50,15.69934605,0.0003107,69.9988,69.2046,255.6931,104.392,1.823e-05,1.981e-05,0.0,0 STARLINK-5276,1 55399U 23014J   23167.01516232  .00001981  00000-0  18230-4 0  9997,2 55399  69.9988  69.2046 0003107 255.6931 104.3920 15.69934605 21449,6737.221,91.724,361.179,356.993,0.0
55399.0,STARLINK-5276,PAYLOAD,2023-06-16 11:04:06,15.69922588,0.0003038,69.9966,67.9483,262.9894,97.0956,1.0202e-05,1.014e-05,0.0,0 STARLINK-5276,1 55399U 23014J   23167.46118804  .00001014  00000-0  10202-4 0  9997,2 55399  69.9966  67.9483 0003038 262.9894  97.0956 15.69922588 21519,6737.255,91.724,361.167,357.074,0.0
55399.0,STARLINK-5276,PAYLOAD,2023-06-16 18:42:52,15.69928333,0.0003172,69.997,67.0525,263.7091,96.3743,-1.3069e-06,-3.7e-06,0.0,0 STARLINK-5276,1 55399U 23014J   23167.77977071 -.00000370  00000-0 -13069-5 0  9991,2 55399  69.9970  67.0525 0003172 263.7091  96.3743 15.69928333 22509,6737.239,91.724,361.241,356.967,0.0
55399.0,STARLINK-5276,PAYLOAD,2023-06-17 02:21:38,15.69919765,0.0003339,69.9989,66.1569,263.8568,96.2247,-1.0462e-05,-1.47e-05,0.0,0 STARLINK-5276,1 55399U 23014J   23168.09836112 -.00001470  00000-0 -10462-4 0  9992,2 55399  69.9989  66.1569 0003339 263.8568  96.2247 15.69919765 21610,6737.264,91.724,361.378,356.879,0.0
55399.0,STARLINK-5276,PAYLOAD,2023-06-17 16:07:25,15.69915303,0.000304,69.999,64.5448,258.5754,101.51,-1.1088e-05,-1.545e-05,0.0,0 STARLINK-5276,1 55399U 23014J   23168.67181768 -.00001545  00000-0 -11088-4 0  9994,2 55399  69.9990  64.5448 0003040 258.5754 101.5100 15.69915303 22643,6737.276,91.725,361.189,357.093,0.0
55399.0,STARLINK-5276,PAYLOAD,2023-06-17 23:46:08,15.69944515,0.0001765,69.9984,63.651,238.5295,121.5728,1.2591e-05,1.303e-05,0.0,0 STARLINK-5276,1 55399U 23014J   23168.99037744  .00001303  00000-0  12591-4 0  9993,2 55399  69.9984  63.6510 0001765 238.5295 121.5728 15.69944515 21752,6737.193,91.723,360.247,357.869,0.0
